$$SOE
2461295.500000000, A.D. 2026-Sep-12 00:00:00.0000, 2.214550504640914E+08, -2.645780117762859E+08, 8.560830402486280E+06,
2461302.500000000, A.D. 2026-Sep-19 00:00:00.0000, 2.287650131141031E+08, -2.549480695936403E+08, 8.428559986120448E+06,
2461309.500000000, A.D. 2026-Sep-26 00:00:00.0000, 2.357989041262885E+08, -2.450105436469404E+08, 8.286118914140522E+06,
2461316.500000000, A.D. 2026-Oct-03 00:00:00.0000, 2.425419306931418E+08, -2.347708799087588E+08, 8.133457680087581E+06,
2461323.500000000, A.D. 2026-Oct-10 00:00:00.0000, 2.489791011153299E+08, -2.242352529637025E+08, 7.970540881648540E+06,
2461330.500000000, A.D. 2026-Oct-17 00:00:00.0000, 2.550952542350096E+08, -2.134106087134776E+08, 7.797348535163984E+06,
2461337.500000000, A.D. 2026-Oct-24 00:00:00.0000, 2.608750936088336E+08, -2.023047075429743E+08, 7.613877447008446E+06,
2461344.500000000, A.D. 2026-Oct-31 00:00:00.0000, 2.663032268737985E+08, -1.909261676224569E+08, 7.420142622297645E+06,
2461351.500000000, A.D. 2026-Nov-07 00:00:00.0000, 2.713642109887594E+08, -1.792845078061291E+08, 7.216178678885944E+06,
2461358.500000000, A.D. 2026-Nov-14 00:00:00.0000, 2.760426038805465E+08, -1.673901887015069E+08, 7.002041312915675E+06,
2461365.500000000, A.D. 2026-Nov-21 00:00:00.0000, 2.803230209789262E+08, -1.552546506182936E+08, 6.777809028509304E+06,
2461372.500000000, A.D. 2026-Nov-28 00:00:00.0000, 2.841901958843440E+08, -1.428903507143053E+08, 6.543584964569509E+06,
2461379.500000000, A.D. 2026-Dec-05 00:00:00.0000, 2.876290489643850E+08, -1.303107992163250E+08, 6.299498417023413E+06,
2461386.500000000, A.D. 2026-Dec-12 00:00:00.0000, 2.906247641457000E+08, -1.175305907462859E+08, 6.045706277538046E+06,
2461393.500000000, A.D. 2026-Dec-19 00:00:00.0000, 2.931628720210658E+08, -1.045654298154006E+08, 5.782394541848850E+06,
2461400.500000000, A.D. 2026-Dec-26 00:00:00.0000, 2.952293390185246E+08, -9.143215035610744E+07, 5.509779806314677E+06,
2461407.500000000, A.D. 2027-Jan-02 00:00:00.0000, 2.968106626605489E+08, -7.814872842780313E+07, 5.228110685269747E+06,
2461414.500000000, A.D. 2027-Jan-09 00:00:00.0000, 2.978939726262088E+08, -6.473428698056422E+07, 4.937669110798240E+06,
2461421.500000000, A.D. 2027-Jan-16 00:00:00.0000, 2.984671370737451E+08, -5.120909155284836E+07, 4.638771480684873E+06,
2461428.500000000, A.D. 2027-Jan-23 00:00:00.0000, 2.985188735016516E+08, -3.759453583484609E+07, 4.331769613279276E+06,
2461435.500000000, A.D. 2027-Jan-30 00:00:00.0000, 2.980388633625150E+08, -2.391311607684939E+07, 4.017051452281333E+06,
2461442.500000000, A.D. 2027-Feb-06 00:00:00.0000, 2.970178696614150E+08, -1.018839300549536E+07, 3.695041472631749E+06,
2461449.500000000, A.D. 2027-Feb-13 00:00:00.0000, 2.954478556741148E+08, 3.555060864787820E+06, 3.366200893025720E+06,
2461456.500000000, A.D. 2027-Feb-20 00:00:00.0000, 2.933221008263172E+08, 1.729172846651028E+07, 3.031027813857524E+06,
2461463.500000000, A.D. 2027-Feb-27 00:00:00.0000, 2.906353133353615E+08, 3.099522726522475E+07, 2.690056856730983E+06,
2461470.500000000, A.D. 2027-Mar-06 00:00:00.0000, 2.873837406522192E+08, 4.463840239737882E+07, 2.343858154947335E+06,
2461477.500000000, A.D. 2027-Mar-13 00:00:00.0000, 2.835652739923826E+08, 5.819343590275976E+07, 1.993035984574724E+06,
2461484.500000000, A.D. 2027-Mar-20 00:00:00.0000, 2.791795436309193E+08, 7.163197087980494E+07, 1.638227053666111E+06,
2461491.500000000, A.D. 2027-Mar-27 00:00:00.0000, 2.742280029341334E+08, 8.492524931655946E+07, 1.280098375999495E+06,
2461498.500000000, A.D. 2027-Apr-03 00:00:00.0000, 2.687139991309043E+08, 9.804426247053149E+07, 9.193447054730356E+05,
2461505.500000000, A.D. 2027-Apr-10 00:00:00.0000, 2.626428287874490E+08, 1.109599123530698E+08, 5.566855360818654E+05,
2461512.500000000, A.D. 2027-Apr-17 00:00:00.0000, 2.560217760893442E+08, 1.236431824554253E+08, 1.928616837597266E+05,
2461519.500000000, A.D. 2027-Apr-24 00:00:00.0000, 2.488601323495852E+08, 1.360653154490501E+08, -1.713685315359607E+05,
2461526.500000000, A.D. 2027-May-01 00:00:00.0000, 2.411691957165740E+08, 1.481979953659947E+08, -5.352334870860502E+05,
2461533.500000000, A.D. 2027-May-08 00:00:00.0000, 2.329622504607886E+08, 1.600135322193494E+08, -8.979527580587938E+05,
2461540.500000000, A.D. 2027-May-15 00:00:00.0000, 2.242545238505366E+08, 1.714850470409863E+08, -1.258741641190805E+06,
2461547.500000000, A.D. 2027-May-22 00:00:00.0000, 2.150631190648838E+08, 1.825866516941097E+08, -1.616815697506681E+06,
2461554.500000000, A.D. 2027-May-29 00:00:00.0000, 2.054069280550332E+08, 1.932936189317822E+08, -1.971395666110381E+06,
2461561.500000000, A.D. 2027-Jun-05 00:00:00.0000, 1.953065262922333E+08, 2.035825428494886E+08, -2.321712496553585E+06,
2461568.500000000, A.D. 2027-Jun-12 00:00:00.0000, 1.847840489366906E+08, 2.134314873781862E+08, -2.667012200094774E+06,
2461575.500000000, A.D. 2027-Jun-19 00:00:00.0000, 1.738630500957087E+08, 2.228201193796332E+08, -3.006560487377986E+06,
2461582.500000000, A.D. 2027-Jun-26 00:00:00.0000, 1.625683478307723E+08, 2.317298239371814E+08, -3.339647165012732E+06,
2461589.500000000, A.D. 2027-Jul-03 00:00:00.0000, 1.509258577210816E+08, 2.401438001412855E+08, -3.665590232460424E+06,
2461596.500000000, A.D. 2027-Jul-10 00:00:00.0000, 1.389624179113576E+08, 2.480471361719982E+08, -3.983739617711738E+06,
2461603.500000000, A.D. 2027-Jul-17 00:00:00.0000, 1.267056087093005E+08, 2.554268629637016E+08, -4.293480503650755E+06,
2461610.500000000, A.D. 2027-Jul-24 00:00:00.0000, 1.141835699612880E+08, 2.622719862299219E+08, -4.594236223297119E+06,
2461617.500000000, A.D. 2027-Jul-31 00:00:00.0000, 1.014248196232923E+08, 2.685734974108996E+08, -4.885470715519547E+06,
2461624.500000000, A.D. 2027-Aug-07 00:00:00.0000, 8.845807616881952E+07, 2.743243654738287E+08, -5.166690415788308E+06,
2461631.500000000, A.D. 2027-Aug-14 00:00:00.0000, 7.531208512826030E+07, 2.795195104791977E+08, -5.437445389998481E+06,
2461638.500000000, A.D. 2027-Aug-21 00:00:00.0000, 6.201545264942026E+07, 2.841557570650221E+08, -5.697330048495322E+06,
2461645.500000000, A.D. 2027-Aug-28 00:00:00.0000, 4.859649145246881E+07, 2.882317708789848E+08, -5.945983674866065E+06,
2461652.500000000, A.D. 2027-Sep-04 00:00:00.0000, 3.508307958442866E+07, 2.917479824705473E+08, -6.183090485653773E+06,
2461659.500000000, A.D. 2027-Sep-11 00:00:00.0000, 2.150253177075981E+07, 2.947065001035158E+08, -6.408379180994794E+06,
2461666.500000000, A.D. 2027-Sep-18 00:00:00.0000, 7.881484311726429E+06, 2.971110130191807E+08, -6.621622090889037E+06,
2461673.500000000, A.D. 2027-Sep-25 00:00:00.0000, -5.754205790244533E+06, 2.989666872406741E+08, -6.822633988127902E+06,
2461680.500000000, A.D. 2027-Oct-02 00:00:00.0000, -1.937954727069473E+07, 3.002800560424172E+08, -7.011270618594617E+06,
2461687.500000000, A.D. 2027-Oct-09 00:00:00.0000, -3.297048675754168E+07, 3.010589070569605E+08, -7.187426998208895E+06,
2461694.500000000, A.D. 2027-Oct-16 00:00:00.0000, -4.650396700066870E+07, 3.013121677848580E+08, -7.351035533030033E+06,
2461701.500000000, A.D. 2027-Oct-23 00:00:00.0000, -5.995797155236706E+07, 3.010497911397533E+08, -7.502064031287089E+06,
2461708.500000000, A.D. 2027-Oct-30 00:00:00.0000, -7.331155632787913E+07, 3.002826430791917E+08, -7.640513633768886E+06,
2461715.500000000, A.D. 2027-Nov-06 00:00:00.0000, -8.654487013770424E+07, 2.990223946884054E+08, -7.766416503202990E+06,
2461722.500000000, A.D. 2027-Nov-13 00:00:00.0000, -9.963916718078563E+07, 2.972814176699060E+08, -7.879833296112880E+06,
2461729.500000000, A.D. 2027-Nov-20 00:00:00.0000, -1.125768096521235E+08, 2.950726818638182E+08, -7.980850890847594E+06,
2461736.500000000, A.D. 2027-Nov-27 00:00:00.0000, -1.253412599349672E+08, 2.924096584017432E+08, -8.069580304285228E+06,
2461743.500000000, A.D. 2027-Dec-04 00:00:00.0000, -1.379170654677168E+08, 2.893062298837917E+08, -8.146154561675787E+06,
2461750.500000000, A.D. 2027-Dec-11 00:00:00.0000, -1.502898378663988E+08, 2.857766069203144E+08, -8.210726566935092E+06,
2461757.500000000, A.D. 2027-Dec-18 00:00:00.0000, -1.624462270142450E+08, 2.818352508643713E+08, -8.263467041128129E+06,
2461764.500000000, A.D. 2027-Dec-25 00:00:00.0000, -1.743738908931033E+08, 2.774968027811561E+08, -8.304562554988354E+06,
2461771.500000000, A.D. 2028-Jan-01 00:00:00.0000, -1.860614619718809E+08, 2.727760186176618E+08, -8.334213666851193E+06,
$$EOE